COMMENT,ORIGINATOR,NORAD_CAT_ID,OBJECT_NAME,OBJECT_TYPE,CLASSIFICATION_TYPE,INTLDES,EPOCH,EPOCH_MICROSECONDS,MEAN_MOTION,ECCENTRICITY,INCLINATION,RA_OF_ASC_NODE,ARG_OF_PERICENTER,MEAN_ANOMALY,EPHEMERIS_TYPE,ELEMENT_SET_NO,REV_AT_EPOCH,BSTAR,MEAN_MOTION_DOT,MEAN_MOTION_DDOT,FILE,TLE_LINE0,TLE_LINE1,TLE_LINE2,OBJECT_ID,OBJECT_NUMBER,SEMIMAJOR_AXIS,PERIOD,APOGEE,PERIGEE,DECAYED
GENERATED VIA SPACETRACK.ORG API,18 SPCS,43454,TITAN 3C TRANSTAGE DEB,DEBRIS,U,69013M,2024-03-03 09:39:07,796448,1.02845248,0.0561169,1.4734,246.9059,212.3064,143.3529,0,999,2203,0,-0.00000168,0,4208022,0 TITAN 3C TRANSTAGE DEB,1 43454U 69013M   24063.40217357 -.00000168  00000-0  00000-0 0  9999,2 43454   1.4734 246.9059 0561169 212.3064 143.3529  1.02845248 22030,1969-013M,43454,41458.383,1400.162,37406.763,32753.732,0
GENERATED VIA SPACETRACK.ORG API,18 SPCS,22988,USA 99,PAYLOAD,U,94009A,2024-03-03 08:50:39,720192,1.00273447,0.0003149,16.3441,36.5533,310.5695,217.1992,0,999,2458,0,-0.00000189,0,4206173,0 USA 99,1 22988U 94009A   24063.36851528 -.00000189  00000-0  00000-0 0  9993,2 22988  16.3441  36.5533 0003149 310.5695 217.1992  1.00273447 24589,1994-009A,22988,42164.266,1436.073,35799.409,35772.854,0
GENERATED VIA SPACETRACK.ORG API,18 SPCS,33436,ASTRA 1M,PAYLOAD,U,08057A,2024-03-03 06:53:55,653216,1.00270009,0.0001305,0.0176,120.2115,280.1506,243.8496,0,999,5609,0,0.00000128,0,4205728,0 ASTRA 1M,1 33436U 08057A   24063.28744969  .00000128  00000-0  00000+0 0  9993,2 33436   0.0176 120.2115 0001305 280.1506 243.8496  1.00270009 56093,2008-057A,33436,42165.230,1436.122,35792.597,35781.592,0
GENERATED VIA SPACETRACK.ORG API,18 SPCS,44479,AMOS 17,PAYLOAD,U,19050A,2024-03-03 06:53:18,59712,1.00269429,0.0002098,0.0142,108.8931,260.2209,272.7482,0,999,1680,0,0.00000118,0,4206075,0 AMOS 17,1 44479U 19050A   24063.28701458  .00000118  00000-0  00000+0 0  9992,2 44479   0.0142 108.8931 0002098 260.2209 272.7482  1.00269429 16807,2019-050A,44479,42165.392,1436.131,35796.104,35778.411,0
GENERATED VIA SPACETRACK.ORG API,18 SPCS,44479,AMOS 17,PAYLOAD,U,19050A,2024-03-03 06:53:18,59712,1.00269429,0.0002098,0.0142,108.8931,260.2209,272.7482,0,999,1680,0,0.00000117,0,4206173,0 AMOS 17,1 44479U 19050A   24063.28701458  .00000117  00000-0  00000-0 0  9992,2 44479   0.0142 108.8931 0002098 260.2209 272.7482  1.00269429 16807,2019-050A,44479,42165.392,1436.131,35796.104,35778.411,0
GENERATED VIA SPACETRACK.ORG API,18 SPCS,44457,COSMOS 2539,PAYLOAD,U,19048A,2024-03-03 06:51:55,353312,1.00272564,0.0000136,0.0138,127.4402,258.3659,250.708,0,999,1683,0,0.0000009,0,4205887,0 COSMOS 2539,1 44457U 19048A   24063.28605733  .00000090  00000-0  00000+0 0  9993,2 44457   0.0138 127.4402 0000136 258.3659 250.7080  1.00272564 16833,2019-048A,44457,42164.514,1436.086,35786.952,35785.805,0
GENERATED VIA SPACETRACK.ORG API,18 SPCS,25967,UFO 10 (USA 146),PAYLOAD,U,99063A,2024-03-03 06:34:42,726432,1.00268617,0.0003793,9.3964,31.0902,278.625,287.5697,0,999,8896,0,-0.00000179,0,4206173,0 UFO 10 (USA 146),1 25967U 99063A   24063.27410563 -.00000179  00000-0  00000-0 0  9997,2 25967   9.3964  31.0902 0003793 278.6250 287.5697  1.00268617 88965,1999-063A,25967,42165.620,1436.142,35803.479,35771.492,0
GENERATED VIA SPACETRACK.ORG API,18 SPCS,25967,UFO 10 (USA 146),PAYLOAD,U,99063A,2024-03-03 04:48:42,792192,1.0026863,0.0003795,9.3963,31.0905,278.5586,261.0645,0,999,8895,0,-0.00000179,0,4205406,0 UFO 10 (USA 146),1 25967U 99063A   24063.20049528 -.00000179  00000-0  00000+0 0  9998,2 25967   9.3963  31.0905 0003795 278.5586 261.0645  1.00268630 88954,1999-063A,25967,42165.616,1436.142,35803.483,35771.480,0
GENERATED VIA SPACETRACK.ORG API,18 SPCS,29055,ASTRA 1KR,PAYLOAD,U,06012A,2024-03-03 04:43:42,656736,1.00273314,0.0002861,0.0814,280.3118,14.9564,316.3039,0,999,6536,0,0.00000129,0,4205173,0 ASTRA 1KR,1 29055U 06012A   24063.19702149  .00000129  00000-0  00000+0 0  9999,2 29055   0.0814 280.3118 0002861  14.9564 316.3039  1.00273314 65361,2006-012A,29055,42164.303,1436.075,35798.232,35774.105,0
GENERATED VIA SPACETRACK.ORG API,18 SPCS,25001,TITAN 3C TRANSTAGE DEB,DEBRIS,U,68081H,2024-03-03 02:01:58,583712,1.01697197,0.0068541,1.0331,346.6529,39.3399,246.2361,0,999,10981,0,-0.00000268,0,4205149,0 TITAN 3C TRANSTAGE DEB,1 25001U 68081H   24063.08470583 -.00000268  00000-0  00000+0 0  9997,2 25001   1.0331 346.6529 0068541  39.3399 246.2361  1.01697197109817,1968-081H,25001,41769.812,1415.968,35677.971,35105.382,0
GENERATED VIA SPACETRACK.ORG API,18 SPCS,41384,IRNSS 1F,PAYLOAD,U,16015A,2024-03-03 01:48:19,40832,1.00275546,0.0020376,3.3232,121.8993,190.339,268.6277,0,999,2927,0,0.00000167,0,4205204,0 IRNSS 1F,1 41384U 16015A   24063.07522038  .00000167  00000-0  00000+0 0  9998,2 41384   3.3232 121.8993 0020376 190.3390 268.6277  1.00275546 29279,2016-015A,41384,42163.678,1436.043,35871.455,35699.630,0
GENERATED VIA SPACETRACK.ORG API,18 SPCS,42749,ECHOSTAR 21,PAYLOAD,U,17032A,2024-03-03 01:42:03,102336,1.00271261,0.0002335,2.7255,317.5862,20.666,218.8249,0,999,2473,0,0.00000076,0,4205088,0 ECHOSTAR 21,1 42749U 17032A   24063.07086924  .00000076  00000-0  00000+0 0  9992,2 42749   2.7255 317.5862 0002335  20.6660 218.8249  1.00271261 24734,2017-032A,42749,42164.879,1436.104,35796.589,35776.898,0
GENERATED VIA SPACETRACK.ORG API,18 SPCS,42915,TDRS 13,PAYLOAD,U,17047A,2024-03-03 01:35:54,683232,1.00272099,0.0014008,3.7308,342.4185,106.2183,85.146,0,999,2399,0,-0.00000087,0,4205315,0 TDRS 13,1 42915U 17047A   24063.06660513 -.00000087  00000-0  00000+0 0  9997,2 42915   3.7308 342.4185 0014008 106.2183  85.1460  1.00272099 23992,2017-047A,42915,42164.644,1436.092,35845.573,35727.445,0
GENERATED VIA SPACETRACK.ORG API,18 SPCS,33373,NIMIQ 4,PAYLOAD,U,08044A,2024-03-03 01:15:36,645408,1.00272648,0.0001891,0.0104,138.8425,201.5455,117.7946,0,999,5645,0,-0.00000211,0,4205124,0 NIMIQ 4,1 33373U 08044A   24063.05250747 -.00000211  00000-0  00000+0 0  9994,2 33373   0.0104 138.8425 0001891 201.5455 117.7946  1.00272648 56453,2008-044A,33373,42164.490,1436.085,35794.328,35778.382,0
GENERATED VIA SPACETRACK.ORG API,18 SPCS,41548,BREEZE-M DEB,DEBRIS,U,15075J,2024-03-03 01:05:53,88576,1.02195306,0.0361835,6.786,63.9257,110.9056,253.1641,0,999,3072,0,-0.00000226,0,4206173,0 BREEZE-M DEB,1 41548U 15075J   24063.04575334 -.00000226  00000-0  00000-0 0  9997,2 41548   6.7860  63.9257 0361835 110.9056 253.1641  1.02195306 30722,2015-075J,41548,41633.975,1409.067,36762.303,33749.377,0
GENERATED VIA SPACETRACK.ORG API,18 SPCS,8832,TITAN 3C TRANSTAGE DEB,DEBRIS,U,76023J,2024-03-02 22:41:13,543296,0.9825889,0.013744,20.1,53.2856,73.4944,112.8025,0,999,10937,0,-0.00000095,0,4204975,0 TITAN 3C TRANSTAGE DEB,1  8832U 76023J   24062.94529564 -.00000095  00000-0  00000+0 0  9991,2  8832  20.1000  53.2856 0137440  73.4944 112.8025  0.98258890109373,1976-023J,8832,42738.631,1465.516,36947.896,35773.096,0
GENERATED VIA SPACETRACK.ORG API,18 SPCS,33436,ASTRA 1M,PAYLOAD,U,08057A,2024-03-02 22:18:25,128864,1.00269928,0.0001286,0.0182,121.4997,278.4608,115.0234,0,999,3735,0,0.00000129,0,4204905,0 ASTRA 1M,1 33436U 08057A   24062.92945751  .00000129  00000-0  00000-0 0  9997,2 33436   0.0182 121.4997 0001286 278.4608 115.0234  1.00269928 37358,2008-057A,33436,42165.253,1436.124,35792.540,35781.695,0
GENERATED VIA SPACETRACK.ORG API,18 SPCS,44479,AMOS 17,PAYLOAD,U,19050A,2024-03-02 22:17:47,535360,1.00274818,0.0001801,0.0125,113.0787,249.8669,149.6951,0,999,1680,0,0.00000119,0,4204905,0 AMOS 17,1 44479U 19050A   24062.92902240  .00000119  00000-0  00000-0 0  9996,2 44479   0.0125 113.0787 0001801 249.8669 149.6951  1.00274818 16800,2019-050A,44479,42163.882,1436.053,35793.340,35778.153,0
GENERATED VIA SPACETRACK.ORG API,18 SPCS,42749,ECHOSTAR 21,PAYLOAD,U,17032A,2024-03-02 22:15:47,234592,1.00271243,0.0002335,2.7259,317.5813,20.4649,167.3238,0,999,2472,0,0.00000076,0,4204905,0 ECHOSTAR 21,1 42749U 17032A   24062.92763003  .00000076  00000-0  00000-0 0  9996,2 42749   2.7259 317.5813 0002335  20.4649 167.3238  1.00271243 24724,2017-032A,42749,42164.884,1436.105,35796.594,35776.903,0
GENERATED VIA SPACETRACK.ORG API,18 SPCS,42915,TDRS 13,PAYLOAD,U,17047A,2024-03-02 22:09:38,817216,1.00272126,0.0014002,3.7309,342.4152,106.2168,33.4433,0,999,2396,0,-0.00000087,0,4204905,0 TDRS 13,1 42915U 17047A   24062.92336594 -.00000087  00000-0  00000-0 0  9991,2 42915   3.7309 342.4152 0014002 106.2168  33.4433  1.00272126 23968,2017-047A,42915,42164.636,1436.092,35845.540,35727.462,0
GENERATED VIA SPACETRACK.ORG API,18 SPCS,33373,NIMIQ 4,PAYLOAD,U,08044A,2024-03-02 21:49:27,139296,1.00272687,0.0001886,0.0118,140.6125,199.0419,66.8469,0,999,5659,0,-0.00000211,0,4204905,0 NIMIQ 4,1 33373U 08044A   24062.90934189 -.00000211  00000-0  00000-0 0  9997,2 33373   0.0118 140.6125 0001886 199.0419  66.8469  1.00272687 56593,2008-044A,33373,42164.479,1436.084,35794.296,35778.392,0
GENERATED VIA SPACETRACK.ORG API,18 SPCS,22988,USA 99,PAYLOAD,U,94009A,2024-03-02 21:46:49,245024,1.00273606,0.0003176,16.3433,36.5581,310.1888,51.1592,0,999,2458,0,-0.00000189,0,4204905,0 USA 99,1 22988U 94009A   24062.90751441 -.00000189  00000-0  00000-0 0  9995,2 22988  16.3433  36.5581 0003176 310.1888  51.1592  1.00273606 24582,1994-009A,22988,42164.221,1436.071,35799.478,35772.695,0
GENERATED VIA SPACETRACK.ORG API,18 SPCS,41937,SBIRS GEO 4 (USA 273),PAYLOAD,U,17004A,2024-03-02 21:45:11,500704,1.00271592,0.0002363,1.4565,349.6526,354.2606,46.7361,0,999,2622,0,-0.00000133,0,4204905,0 SBIRS GEO 4 (USA 273),1 41937U 17004A   24062.90638311 -.00000133  00000-0  00000-0 0  9999,2 41937   1.4565 349.6526 0002363 354.2606  46.7361  1.00271592 26228,2017-004A,41937,42164.786,1436.100,35796.615,35776.688,0
